*******************************************************************************
Ephemeris / WWW_USER Fri Mar  7 10:51:59 2025 Pasadena, USA      / Horizons    
*******************************************************************************
Target body name: (2018 SL3)                      {source: JPL#9}
Center body name: Earth (399)                     {source: DE441}
Center-site name: Mauna Kea
*******************************************************************************
Start time      : A.D. 2018-Dec-20 03:57:00.0000 UT      
Stop  time      : A.D. 2018-Dec-20 16:41:00.0000 UT      
Step-size       : 1 minutes
*******************************************************************************
Target pole/equ : undefined
Target radii    : undefined                                                    
Center geodetic : 204.5278, 19.8260847, 4.21024   {E-lon(deg),Lat(deg),Alt(km)}
Center cylindric: 204.5278, 6006.35451, 2151.0229 {E-lon(deg),Dxy(km),Dz(km)}
Center pole/equ : ITRF93                          {East-longitude positive}
Center radii    : 6378.137, 6378.137, 6356.752 km {Equator_a, b, pole_c}       
Target primary  : Sun
Vis. interferer : MOON (R_eq= 1737.400) km        {source: DE441}
Rel. light bend : Sun                             {source: DE441}
Rel. lght bnd GM: 1.3271E+11 km^3/s^2                                          
Small-body perts: Yes                             {source: SB441-N16}
Atmos refraction: NO (AIRLESS)
RA format       : HMS
Time format     : CAL 
Calendar mode   : Mixed Julian/Gregorian
RTS-only print  : NO       
EOP file        : eop.250306.p250602                                           
EOP coverage    : DATA-BASED 1962-JAN-20 TO 2025-MAR-06. PREDICTS-> 2025-JUN-01
Units conversion: 1 au= 149597870.700 km, c= 299792.458 km/s, 1 day= 86400.0 s 
Table cut-offs 1: Elevation (-90.0deg=NO ),Airmass (>38.000=NO), Daylight (YES)
Table cut-offs 2: Solar elongation (  0.0,180.0=NO ),Local Hour Angle( 0.0=NO )
Table cut-offs 3: RA/DEC angular rate (     0.0=NO )                           
*******************************************************************************
Initial IAU76/J2000 heliocentric ecliptic osculating elements (au, days, deg.):
  EPOCH=  2458395.5 ! 2018-Oct-04.00 (TDB)         Residual RMS= .22865        
   EC= .523832704749462    QR= .7523817427125933   TP= 2458455.4342692108      
   OM= 5.37828463666876    W=  89.37669799750542   IN= 4.07069530013935        
  Equivalent ICRF heliocentric cartesian coordinates (au, au/d):
   X= 1.077301312774806E+00  Y= 1.718701187822678E-01  Z= 8.135917115484240E-02
  VX=-1.117713770282307E-02 VY= 1.338322199759621E-02 VZ= 7.048365308861806E-03
Asteroid physical parameters (km, seconds, rotational period in hours):        
   GM= n.a.                RAD= n.a.               ROTPER= n.a.                
   H= 24.5                 G= .150                 B-V= n.a.                   
                           ALBEDO= n.a.            STYP= n.a.                  
*******************************************************************************
 Date__(UT)__HR:MN     R.A._________(ICRF)_________DEC
******************************************************
$$SOE
 2018-Dec-20 10:06  m  14 15 49.455694 -08 49 47.28341
 2018-Dec-20 10:07  m  14 15 49.549271 -08 49 48.08933
 2018-Dec-20 10:08  m  14 15 49.642835 -08 49 48.89527
 2018-Dec-20 10:09  m  14 15 49.736386 -08 49 49.70124
 2018-Dec-20 10:10  m  14 15 49.829924 -08 49 50.50722
 2018-Dec-20 10:11  m  14 15 49.923448 -08 49 51.31323
 2018-Dec-20 10:12  m  14 15 50.016959 -08 49 52.11926
 2018-Dec-20 10:13  m  14 15 50.110456 -08 49 52.92530
 2018-Dec-20 10:14  m  14 15 50.203940 -08 49 53.73137
 2018-Dec-20 10:15  m  14 15 50.297411 -08 49 54.53746
 2018-Dec-20 10:16  m  14 15 50.390868 -08 49 55.34357
 2018-Dec-20 10:17  m  14 15 50.484312 -08 49 56.14970
 2018-Dec-20 10:18  m  14 15 50.577741 -08 49 56.95584
 2018-Dec-20 10:19  m  14 15 50.671158 -08 49 57.76201
 2018-Dec-20 10:20  m  14 15 50.764560 -08 49 58.56820
 2018-Dec-20 10:21  m  14 15 50.857949 -08 49 59.37441
 2018-Dec-20 10:22  m  14 15 50.951323 -08 50 00.18064
 2018-Dec-20 10:23  m  14 15 51.044684 -08 50 00.98688
 2018-Dec-20 10:24  m  14 15 51.138032 -08 50 01.79315
 2018-Dec-20 10:25  m  14 15 51.231365 -08 50 02.59943
 2018-Dec-20 10:26  m  14 15 51.324684 -08 50 03.40574
 2018-Dec-20 10:27  m  14 15 51.417989 -08 50 04.21206
 2018-Dec-20 10:28  m  14 15 51.511280 -08 50 05.01840
 2018-Dec-20 10:29  m  14 15 51.604557 -08 50 05.82476
 2018-Dec-20 10:30  m  14 15 51.697820 -08 50 06.63114
 2018-Dec-20 10:31  m  14 15 51.791069 -08 50 07.43753
 2018-Dec-20 10:32  m  14 15 51.884303 -08 50 08.24395
 2018-Dec-20 10:33  m  14 15 51.977523 -08 50 09.05038
 2018-Dec-20 10:34  m  14 15 52.070729 -08 50 09.85683
 2018-Dec-20 10:35  m  14 15 52.163920 -08 50 10.66329
 2018-Dec-20 10:36  m  14 15 52.257097 -08 50 11.46978
 2018-Dec-20 10:37  m  14 15 52.350260 -08 50 12.27628
 2018-Dec-20 10:38  m  14 15 52.443408 -08 50 13.08280
 2018-Dec-20 10:39  m  14 15 52.536542 -08 50 13.88933
 2018-Dec-20 10:40  m  14 15 52.629661 -08 50 14.69588
 2018-Dec-20 10:41  m  14 15 52.722765 -08 50 15.50245
 2018-Dec-20 10:42  m  14 15 52.815855 -08 50 16.30904
 2018-Dec-20 10:43  m  14 15 52.908930 -08 50 17.11564
 2018-Dec-20 10:44  m  14 15 53.001990 -08 50 17.92226
 2018-Dec-20 10:45  m  14 15 53.095036 -08 50 18.72889
 2018-Dec-20 10:46  m  14 15 53.188067 -08 50 19.53554
 2018-Dec-20 10:47  m  14 15 53.281083 -08 50 20.34221
 2018-Dec-20 10:48  m  14 15 53.374084 -08 50 21.14889
 2018-Dec-20 10:49  m  14 15 53.467070 -08 50 21.95558
 2018-Dec-20 10:50  m  14 15 53.560042 -08 50 22.76229
 2018-Dec-20 10:51  m  14 15 53.652998 -08 50 23.56902
 2018-Dec-20 10:52  m  14 15 53.745940 -08 50 24.37576
 2018-Dec-20 10:53  m  14 15 53.838866 -08 50 25.18252
 2018-Dec-20 10:54  m  14 15 53.931777 -08 50 25.98929
 2018-Dec-20 10:55  m  14 15 54.024673 -08 50 26.79608
 2018-Dec-20 10:56  m  14 15 54.117554 -08 50 27.60288
 2018-Dec-20 10:57  m  14 15 54.210420 -08 50 28.40969
 2018-Dec-20 10:58  m  14 15 54.303271 -08 50 29.21652
 2018-Dec-20 10:59  m  14 15 54.396106 -08 50 30.02336
 2018-Dec-20 11:00  m  14 15 54.488926 -08 50 30.83022
 2018-Dec-20 11:01  m  14 15 54.581731 -08 50 31.63709
 2018-Dec-20 11:02  m  14 15 54.674521 -08 50 32.44397
 2018-Dec-20 11:03  m  14 15 54.767295 -08 50 33.25086
 2018-Dec-20 11:04  m  14 15 54.860053 -08 50 34.05777
 2018-Dec-20 11:05  m  14 15 54.952797 -08 50 34.86469
 2018-Dec-20 11:06  m  14 15 55.045524 -08 50 35.67163
 2018-Dec-20 11:07  m  14 15 55.138237 -08 50 36.47858
 2018-Dec-20 11:08  m  14 15 55.230933 -08 50 37.28554
 2018-Dec-20 11:09  m  14 15 55.323615 -08 50 38.09251
 2018-Dec-20 11:10  m  14 15 55.416280 -08 50 38.89949
 2018-Dec-20 11:11  m  14 15 55.508930 -08 50 39.70649
 2018-Dec-20 11:12  m  14 15 55.601564 -08 50 40.51349
 2018-Dec-20 11:13  m  14 15 55.694183 -08 50 41.32051
 2018-Dec-20 11:14  m  14 15 55.786786 -08 50 42.12754
 2018-Dec-20 11:15  m  14 15 55.879373 -08 50 42.93459
 2018-Dec-20 11:16  m  14 15 55.971945 -08 50 43.74164
 2018-Dec-20 11:17  m  14 15 56.064500 -08 50 44.54870
 2018-Dec-20 11:18  m  14 15 56.157040 -08 50 45.35578
 2018-Dec-20 11:19  m  14 15 56.249564 -08 50 46.16286
 2018-Dec-20 11:20  m  14 15 56.342072 -08 50 46.96996
 2018-Dec-20 11:21  m  14 15 56.434564 -08 50 47.77707
 2018-Dec-20 11:22  m  14 15 56.527040 -08 50 48.58418
 2018-Dec-20 11:23  m  14 15 56.619501 -08 50 49.39131
 2018-Dec-20 11:24  m  14 15 56.711945 -08 50 50.19845
 2018-Dec-20 11:25  m  14 15 56.804373 -08 50 51.00559
 2018-Dec-20 11:26  m  14 15 56.896785 -08 50 51.81275
 2018-Dec-20 11:27  m  14 15 56.989182 -08 50 52.61991
 2018-Dec-20 11:28  m  14 15 57.081562 -08 50 53.42709
 2018-Dec-20 11:29  m  14 15 57.173926 -08 50 54.23427
 2018-Dec-20 11:30  m  14 15 57.266273 -08 50 55.04146
 2018-Dec-20 11:31  m  14 15 57.358605 -08 50 55.84866
 2018-Dec-20 11:32  m  14 15 57.450921 -08 50 56.65587
 2018-Dec-20 11:33  m  14 15 57.543220 -08 50 57.46309
 2018-Dec-20 11:34  m  14 15 57.635503 -08 50 58.27031
 2018-Dec-20 11:35  m  14 15 57.727770 -08 50 59.07755
 2018-Dec-20 11:36  m  14 15 57.820021 -08 50 59.88479
 2018-Dec-20 11:37  m  14 15 57.912255 -08 51 00.69204
 2018-Dec-20 11:38  m  14 15 58.004473 -08 51 01.49929
 2018-Dec-20 11:39  m  14 15 58.096674 -08 51 02.30656
 2018-Dec-20 11:40  m  14 15 58.188860 -08 51 03.11383
 2018-Dec-20 11:41  m  14 15 58.281029 -08 51 03.92110
 2018-Dec-20 11:42  m  14 15 58.373181 -08 51 04.72839
 2018-Dec-20 11:43  m  14 15 58.465317 -08 51 05.53568
 2018-Dec-20 11:44  m  14 15 58.557437 -08 51 06.34298
 2018-Dec-20 11:45  m  14 15 58.649540 -08 51 07.15028
 2018-Dec-20 11:46  m  14 15 58.741627 -08 51 07.95759
 2018-Dec-20 11:47  m  14 15 58.833697 -08 51 08.76491
 2018-Dec-20 11:48  m  14 15 58.925751 -08 51 09.57223
 2018-Dec-20 11:49  m  14 15 59.017788 -08 51 10.37956
 2018-Dec-20 11:50  m  14 15 59.109809 -08 51 11.18689
 2018-Dec-20 11:51  m  14 15 59.201813 -08 51 11.99423
 2018-Dec-20 11:52  m  14 15 59.293801 -08 51 12.80157
 2018-Dec-20 11:53  m  14 15 59.385772 -08 51 13.60892
 2018-Dec-20 11:54  m  14 15 59.477726 -08 51 14.41627
 2018-Dec-20 11:55  m  14 15 59.569664 -08 51 15.22363
 2018-Dec-20 11:56  m  14 15 59.661585 -08 51 16.03099
 2018-Dec-20 11:57  m  14 15 59.753489 -08 51 16.83836
 2018-Dec-20 11:58  m  14 15 59.845377 -08 51 17.64573
 2018-Dec-20 11:59  m  14 15 59.937248 -08 51 18.45310
 2018-Dec-20 12:00  m  14 16 00.029103 -08 51 19.26048
 2018-Dec-20 12:01  m  14 16 00.120940 -08 51 20.06786
 2018-Dec-20 12:02  m  14 16 00.212761 -08 51 20.87524
 2018-Dec-20 12:03  m  14 16 00.304566 -08 51 21.68263
 2018-Dec-20 12:04  m  14 16 00.396353 -08 51 22.49002
 2018-Dec-20 12:05  m  14 16 00.488124 -08 51 23.29741
 2018-Dec-20 12:06  m  14 16 00.579878 -08 51 24.10481
 2018-Dec-20 12:07  m  14 16 00.671615 -08 51 24.91221
 2018-Dec-20 12:08  m  14 16 00.763335 -08 51 25.71961
